NORAD_CAT_ID,OBJECT_NAME,OBJECT_TYPE,EPOCH,MEAN_MOTION,ECCENTRICITY,INCLINATION,RA_OF_ASC_NODE,ARG_OF_PERICENTER,MEAN_ANOMALY,BSTAR,MEAN_MOTION_DOT,MEAN_MOTION_DDOT,TLE_LINE0,TLE_LINE1,TLE_LINE2,SEMIMAJOR_AXIS,PERIOD,APOGEE,PERIGEE,DECAYED
51149.0,STARLINK-3360,PAYLOAD,2023-10-16 03:54:11,15.08850852,0.0001482,53.2167,279.3314,93.0322,267.084,0.00027253,4.053e-05,0.0,0 STARLINK-3360,1 51149U 22005AX  23289.16263506  .00004053  00000-0  27253-3 0  9996,2 51149  53.2167 279.3314 0001482  93.0322 267.0840 15.08850852 97532,6917.847,95.437,540.737,538.687,0.0
51149.0,STARLINK-3360,PAYLOAD,2023-10-16 08:40:21,15.08864657,0.0001465,53.2162,278.4383,89.2773,270.8387,0.0012203,0.000192,0.0,0 STARLINK-3360,1 51149U 22005AX  23289.36135684  .00019200  00000-0  12203-2 0  9991,2 51149  53.2162 278.4383 0001465  89.2773 270.8387 15.08864657 96457,6917.805,95.436,540.683,538.657,0.0
51149.0,STARLINK-3360,PAYLOAD,2023-10-16 22:58:49,15.08859089,0.0001448,53.2158,275.7618,94.368,265.7477,0.00069932,0.00010865,0.0,0 STARLINK-3360,1 51149U 22005AX  23289.95751609  .00010865  00000-0  69932-3 0  9997,2 51149  53.2158 275.7618 0001448  94.3680 265.7477 15.08859089 96544,6917.822,95.436,540.689,538.685,0.0
51149.0,STARLINK-3360,PAYLOAD,2023-10-17 05:20:21,15.08856348,0.0001313,53.2162,274.5725,97.8507,262.2634,0.001261,0.00019847,0.0,0 STARLINK-3360,1 51149U 22005AX  23290.22247520  .00019847  00000-0  12610-2 0  9990,2 51149  53.2162 274.5725 0001313  97.8507 262.2634 15.08856348 96588,6917.83,95.437,540.604,538.787,0.0
51149.0,STARLINK-3360,PAYLOAD,2023-10-17 16:28:04,15.0884278,0.0001763,53.2166,272.491,88.0133,272.1061,0.0017016,0.00026899,0.0,0 STARLINK-3360,1 51149U 22005AX  23290.68615886  .00026899  00000-0  17016-2 0  9994,2 51149  53.2166 272.4910 0001763  88.0133 272.1061 15.08842780 97761,6917.872,95.437,540.957,538.517,0.0
51149.0,STARLINK-3360,PAYLOAD,2023-10-17 22:49:36,15.08843299,0.000166,53.2168,271.3011,97.4102,262.7079,0.001045,0.00016384,0.0,0 STARLINK-3360,1 51149U 22005AX  23290.95111961  .00016384  00000-0  10450-2 0  9992,2 51149  53.2168 271.3011 0001660  97.4102 262.7079 15.08843299 96690,6917.87,95.437,540.884,538.587,0.0
51149.0,STARLINK-3360,PAYLOAD,2023-10-18 05:11:09,15.08840699,0.0001719,53.2173,270.1111,103.0327,257.0857,0.00075759,0.0001179,0.0,0 STARLINK-3360,1 51149U 22005AX  23291.21607943  .00011790  00000-0  75759-3 0  9992,2 51149  53.2173 270.1111 0001719 103.0327 257.0857 15.08840699 97842,6917.878,95.438,540.932,538.554,0.0
51149.0,STARLINK-3360,PAYLOAD,2023-10-18 16:18:51,15.08842791,0.0001608,53.2175,268.0291,99.5582,260.5591,0.00063812,9.883e-05,0.0,0 STARLINK-3360,1 51149U 22005AX  23291.67976140  .00009883  00000-0  63812-3 0  9997,2 51149  53.2175 268.0291 0001608  99.5582 260.5591 15.08842791 97915,6917.872,95.437,540.849,538.624,0.0
51149.0,STARLINK-3360,PAYLOAD,2023-10-19 08:12:42,15.08859704,0.0001627,53.218,265.0566,95.6151,264.5027,0.00098074,0.00015363,0.0,0 STARLINK-3360,1 51149U 22005AX  23292.34215792  .00015363  00000-0  98074-3 0  9999,2 51149  53.2180 265.0566 0001627  95.6151 264.5027 15.08859704 96901,6917.82,95.436,540.811,538.56,0.0
51149.0,STARLINK-3360,PAYLOAD,2023-10-19 22:31:10,15.08845296,0.0001261,53.2161,262.3806,85.5089,274.6047,0.00039451,5.997e-05,0.0,0 STARLINK-3360,1 51149U 22005AX  23292.93831989  .00005997  00000-0  39451-3 0  9992,2 51149  53.2161 262.3806 0001261  85.5089 274.6047 15.08845296 96993,6917.864,95.437,540.602,538.857,0.0
51149.0,STARLINK-3360,PAYLOAD,2023-10-20 04:52:43,15.08849541,0.0001507,53.2163,261.1903,101.4524,258.6638,0.00035864,5.426e-05,0.0,0 STARLINK-3360,1 51149U 22005AX  23293.20327780  .00005426  00000-0  35864-3 0  9993,2 51149  53.2163 261.1903 0001507 101.4524 258.6638 15.08849541 98149,6917.851,95.437,540.759,538.674,0.0
51149.0,STARLINK-3360,PAYLOAD,2023-10-20 22:21:58,15.08836553,0.0001626,53.2178,257.9188,98.5659,261.5517,0.00017744,2.537e-05,0.0,0 STARLINK-3360,1 51149U 22005AX  23293.93192405  .00002537  00000-0  17744-3 0  9994,2 51149  53.2178 257.9188 0001626  98.5659 261.5517 15.08836553 97147,6917.891,95.438,540.881,538.631,0.0
51149.0,STARLINK-3360,PAYLOAD,2023-10-21 03:08:07,15.08833881,0.0001712,53.2178,257.0264,110.7464,249.3712,0.00016956,2.411e-05,0.0,0 STARLINK-3360,1 51149U 22005AX  23294.13064543  .00002411  00000-0  16956-3 0  9993,2 51149  53.2178 257.0264 0001712 110.7464 249.3712 15.08833881 98288,6917.899,95.438,540.948,538.58,0.0
51149.0,STARLINK-3360,PAYLOAD,2023-10-21 14:15:49,15.08842173,0.0001543,53.2177,254.9474,98.9243,261.1924,0.0003364,5.07e-05,0.0,0 STARLINK-3360,1 51149U 22005AX  23294.59432523  .00005070  00000-0  33640-3 0  9993,2 51149  53.2177 254.9474 0001543  98.9243 261.1924 15.08842173 97246,6917.874,95.437,540.806,538.671,0.0
51149.0,STARLINK-3360,PAYLOAD,2023-10-22 04:34:17,15.08862676,0.0001516,53.2173,252.2726,106.2819,253.834,0.00074352,0.00011572,0.0,0 STARLINK-3360,1 51149U 22005AX  23295.19047801  .00011572  00000-0  74352-3 0  9990,2 51149  53.2173 252.2726 0001516 106.2819 253.8340 15.08862676 98448,6917.811,95.436,540.725,538.627,0.0
51149.0,STARLINK-3360,PAYLOAD,2023-10-22 14:06:35,15.08862835,7.56e-05,53.2169,250.486,65.0599,295.0472,0.00042804,6.535e-05,0.0,0 STARLINK-3360,1 51149U 22005AX  23295.58791352  .00006535  00000-0  42804-3 0  9990,2 51149  53.2169 250.4860 0000756  65.0599 295.0472 15.08862835 98502,6917.811,95.436,540.199,539.153,0.0
51149.0,STARLINK-3360,PAYLOAD,2023-10-23 02:49:41,15.08829531,0.0001688,53.2173,248.1096,83.5826,276.5358,-0.00012181,-2.226e-05,0.0,0 STARLINK-3360,1 51149U 22005AX  23296.11784536 -.00002226  00000-0 -12181-3 0  9996,2 51149  53.2173 248.1096 0001688  83.5826 276.5358 15.08829531 98586,6917.912,95.438,540.945,538.61,0.0
51149.0,STARLINK-3360,PAYLOAD,2023-10-23 13:57:24,15.08816717,0.0001545,53.216,246.0282,84.6458,275.4711,0.00035741,5.401e-05,0.0,0 STARLINK-3360,1 51149U 22005AX  23296.58153569  .00005401  00000-0  35741-3 0  9996,2 51149  53.2160 246.0282 0001545  84.6458 275.4711 15.08816717 98652,6917.952,95.439,540.885,538.748,0.0
51149.0,STARLINK-3360,PAYLOAD,2023-10-24 04:15:53,15.08839105,0.0001373,53.2155,243.351,86.7131,273.4018,0.00081853,0.00012763,0.0,0 STARLINK-3360,1 51149U 22005AX  23297.17769898  .00012763  00000-0  81853-3 0  9994,2 51149  53.2155 243.3510 0001373  86.7131 273.4018 15.08839105 98744,6917.883,95.438,540.698,538.798,0.0
51149.0,STARLINK-3360,PAYLOAD,2023-10-24 13:48:11,15.08850938,0.0001358,53.2155,241.5659,86.4622,273.6525,0.00108,0.00016947,0.0,0 STARLINK-3360,1 51149U 22005AX  23297.57513805  .00016947  00000-0  10800-2 0  9994,2 51149  53.2155 241.5659 0001358  86.4622 273.6525 15.08850938 97698,6917.847,95.437,540.651,538.773,0.0
51149.0,STARLINK-3360,PAYLOAD,2023-10-25 05:42:02,15.08876907,0.0001357,53.2153,238.5921,88.2284,271.8863,0.0011954,0.00018807,0.0,0 STARLINK-3360,1 51149U 22005AX  23298.23752672  .00018807  00000-0  11954-2 0  9993,2 51149  53.2153 238.5921 0001357  88.2284 271.8863 15.08876907 98901,6917.768,95.435,540.571,538.694,0.0
51149.0,STARLINK-3360,PAYLOAD,2023-10-26 02:22:02,15.08861006,0.0001389,53.216,234.7251,102.6491,257.4656,0.00060483,9.356e-05,0.0,0 STARLINK-3360,1 51149U 22005AX  23299.09864302  .00009356  00000-0  60483-3 0  9993,2 51149  53.2160 234.7251 0001389 102.6491 257.4656 15.08861006 99038,6917.816,95.436,540.642,538.72,0.0
51149.0,STARLINK-3360,PAYLOAD,2023-10-26 05:32:48,15.08863683,0.0001379,53.2164,234.13,104.8805,255.234,0.00078284,0.00012201,0.0,0 STARLINK-3360,1 51149U 22005AX  23299.23112160  .00012201  00000-0  78284-3 0  9998,2 51149  53.2164 234.1300 0001379 104.8805 255.2340 15.08863683 97940,6917.808,95.436,540.627,538.719,0.0
51149.0,STARLINK-3360,PAYLOAD,2023-10-27 02:12:49,15.08855753,0.0001455,53.2169,230.2656,96.0376,264.0782,0.0014477,0.00022837,0.0,0 STARLINK-3360,1 51149U 22005AX  23300.09224429  .00022837  00000-0  14477-2 0  9996,2 51149  53.2169 230.2656 0001455  96.0376 264.0782 15.08855753 99181,6917.832,95.437,540.704,538.691,0.0
51149.0,STARLINK-3360,PAYLOAD,2023-10-27 19:42:04,15.08845421,0.000156,53.2166,226.9936,95.0505,265.0665,0.0010269,0.00016095,0.0,0 STARLINK-3360,1 51149U 22005AX  23300.82088774  .00016095  00000-0  10269-2 0  9992,2 51149  53.2166 226.9936 0001560  95.0505 265.0665 15.08845421 99295,6917.864,95.437,540.808,538.65,0.0
51149.0,STARLINK-3360,PAYLOAD,2023-10-28 11:35:56,15.08833476,0.000136,53.2164,224.0212,83.0044,277.1102,0.00026272,3.895e-05,0.0,0 STARLINK-3360,1 51149U 22005AX  23301.48329363  .00003895  00000-0  26272-3 0  9993,2 51149  53.2164 224.0212 0001360  83.0044 277.1102 15.08833476 99390,6917.9,95.438,540.706,538.824,0.0
51149.0,STARLINK-3360,PAYLOAD,2023-10-28 22:43:38,15.08843556,0.0001317,53.216,221.9395,82.673,277.4411,0.00027208,4.045e-05,0.0,0 STARLINK-3360,1 51149U 22005AX  23301.94697188  .00004045  00000-0  27208-3 0  9995,2 51149  53.2160 221.9395 0001317  82.6730 277.4411 15.08843556 98354,6917.87,95.437,540.646,538.823,0.0
51149.0,STARLINK-3360,PAYLOAD,2023-10-29 00:19:01,15.08845715,0.0001415,53.2165,221.6414,82.3073,277.808,0.00036804,5.575e-05,0.0,0 STARLINK-3360,1 51149U 22005AX  23302.01321007  .00005575  00000-0  36804-3 0  9999,2 51149  53.2165 221.6414 0001415  82.3073 277.8080 15.08845715 99473,6917.863,95.437,540.707,538.749,0.0
51149.0,STARLINK-3360,PAYLOAD,2023-10-29 11:26:43,15.08852994,0.0001526,53.2167,219.5599,72.8094,287.3065,0.00066675,0.00010343,0.0,0 STARLINK-3360,1 51149U 22005AX  23302.47688926  .00010343  00000-0  66675-3 0  9993,2 51149  53.2167 219.5599 0001526  72.8094 287.3065 15.08852994 98436,6917.841,95.437,540.761,538.65,0.0
51149.0,STARLINK-3360,PAYLOAD,2023-10-29 22:34:25,15.08835076,0.0001547,53.2166,217.4802,79.1971,280.9195,-9.3312e-05,-1.773e-05,0.0,0 STARLINK-3360,1 51149U 22005AX  23302.94057295 -.00001773  00000-0 -93312-4 0  9992,2 51149  53.2166 217.4802 0001547  79.1971 280.9195 15.08835076 98509,6917.895,95.438,540.831,538.69,0.0
